{
  "type": "FeatureCollection",
  "features": [
    {
      "type": "Feature",
      "properties": {
        "norad_id": 28051,
        "name": "IRS-P6 (RESOURCESAT-1)",
        "group": "resource",
        "lat": 78.12266190062485,
        "lon": -112.79096114531563,
        "alt_km": 765.9954969482451,
        "timestamp": "2025-12-09T05:43:20.384159+00:00",
        "meta_object_name": "IRS-P6 (RESOURCESAT-1)",
        "meta_object_id": "2003-046A",
        "meta_epoch": "2025-12-08T21:08:38.051808",
        "meta_mean_motion": 14.36071867,
        "meta_eccentricity": 0.0063886,
        "meta_inclination": 98.2178,
        "meta_ra_of_asc_node": 23.4665,
        "meta_arg_of_pericenter": 192.2842,
        "meta_mean_anomaly": 220.2178,
        "meta_ephemeris_type": 0,
        "meta_classification_type": "U",
        "meta_norad_cat_id": 28051,
        "meta_element_set_no": 999,
        "meta_rev_at_epoch": 15321,
        "meta_bstar": 9.8639e-05,
        "meta_mean_motion_dot": 2.53e-06,
        "meta_mean_motion_ddot": 0,
        "tle_line1": "1 28051U 03046A   25342.88099597  .00000253  00000+0  98639-4 0  9998",
        "tle_line2": "2 28051  98.2178  23.4665 0063886 192.2842 220.2178 14.36071867153215"
      },
      "geometry": {
        "type": "Point",
        "coordinates": [
          -112.79096114531563,
          78.12266190062485
        ]
      }
    },
    {
      "type": "Feature",
      "properties": {
        "norad_id": 28220,
        "name": "SHIYAN-1 (SY-1)",
        "group": "resource",
        "lat": -73.08102265283335,
        "lon": -162.56608743904928,
        "alt_km": 488.6903760207588,
        "timestamp": "2025-12-09T05:43:20.384170+00:00",
        "meta_object_name": "SHIYAN-1 (SY-1)",
        "meta_object_id": "2004-012A",
        "meta_epoch": "2025-12-08T17:36:27.273600",
        "meta_mean_motion": 15.27982082,
        "meta_eccentricity": 0.0005898,
        "meta_inclination": 97.8934,
        "meta_ra_of_asc_node": 44.0358,
        "meta_arg_of_pericenter": 340.8993,
        "meta_mean_anomaly": 19.2023,
        "meta_ephemeris_type": 0,
        "meta_classification_type": "U",
        "meta_norad_cat_id": 28220,
        "meta_element_set_no": 999,
        "meta_rev_at_epoch": 18195,
        "meta_bstar": 0.00065181,
        "meta_mean_motion_dot": 0.00017746,
        "meta_mean_motion_ddot": 0,
        "tle_line1": "1 28220U 04012A   25342.73364900  .00017746  00000+0  65181-3 0  9997",
        "tle_line2": "2 28220  97.8934  44.0358 0005898 340.8993  19.2023 15.27982082181951"
      },
      "geometry": {
        "type": "Point",
        "coordinates": [
          -162.56608743904928,
          -73.08102265283335
        ]
      }
    },
    {
      "type": "Feature",
      "properties": {
        "norad_id": 28376,
        "name": "AURA",
        "group": "resource",
        "lat": 52.2527585225603,
        "lon": -77.4438853938693,
        "alt_km": 684.6329894135342,
        "timestamp": "2025-12-09T05:43:20.384182+00:00",
        "meta_object_name": "AURA",
        "meta_object_id": "2004-026A",
        "meta_epoch": "2025-12-08T19:37:04.231776",
        "meta_mean_motion": 14.60933887,
        "meta_eccentricity": 0.0001169,
        "meta_inclination": 98.318,
        "meta_ra_of_asc_node": 293.0259,
        "meta_arg_of_pericenter": 93.2673,
        "meta_mean_anomaly": 266.866,
        "meta_ephemeris_type": 0,
        "meta_classification_type": "U",
        "meta_norad_cat_id": 28376,
        "meta_element_set_no": 999,
        "meta_rev_at_epoch": 13841,
        "meta_bstar": 0.00044822,
        "meta_mean_motion_dot": 2.148e-05,
        "meta_mean_motion_ddot": 0,
        "tle_line1": "1 28376U 04026A   25342.81741009  .00002148  00000+0  44822-3 0  9991",
        "tle_line2": "2 28376  98.3180 293.0259 0001169  93.2673 266.8660 14.60933887138414"
      },
      "geometry": {
        "type": "Point",
        "coordinates": [
          -77.4438853938693,
          52.2527585225603
        ]
      }
    },
    {
      "type": "Feature",
      "properties": {
        "norad_id": 28649,
        "name": "IRS-P5 (CARTOSAT-1)",
        "group": "resource",
        "lat": -73.7904679747898,
        "lon": 162.66414243428287,
        "alt_km": 604.9487320131202,
        "timestamp": "2025-12-09T05:43:20.384193+00:00",
        "meta_object_name": "IRS-P5 (CARTOSAT-1)",
        "meta_object_id": "2005-017A",
        "meta_epoch": "2025-12-08T18:54:39.665376",
        "meta_mean_motion": 14.9038606,
        "meta_eccentricity": 0.0001475,
        "meta_inclination": 97.5496,
        "meta_ra_of_asc_node": 9.3764,
        "meta_arg_of_pericenter": 47.9419,
        "meta_mean_anomaly": 312.1925,
        "meta_ephemeris_type": 0,
        "meta_classification_type": "U",
        "meta_norad_cat_id": 28649,
        "meta_element_set_no": 999,
        "meta_rev_at_epoch": 11545,
        "meta_bstar": 0.00028433,
        "meta_mean_motion_dot": 2.716e-05,
        "meta_mean_motion_ddot": 0,
        "tle_line1": "1 28649U 05017A   25342.78795909  .00002716  00000+0  28433-3 0  9990",
        "tle_line2": "2 28649  97.5496   9.3764 0001475  47.9419 312.1925 14.90386060115457"
      },
      "geometry": {
        "type": "Point",
        "coordinates": [
          162.66414243428287,
          -73.7904679747898
        ]
      }
    },
    {
      "type": "Feature",
      "properties": {
        "norad_id": 28893,
        "name": "SINAH 1",
        "group": "resource",
        "lat": -41.238755999268506,
        "lon": -75.53006361164903,
        "alt_km": 684.0929230595548,
        "timestamp": "2025-12-09T05:43:20.384204+00:00",
        "meta_object_name": "SINAH 1",
        "meta_object_id": "2005-043D",
        "meta_epoch": "2025-12-08T18:52:18.398784",
        "meta_mean_motion": 14.63956445,
        "meta_eccentricity": 0.001514,
        "meta_inclination": 98.2601,
        "meta_ra_of_asc_node": 111.3331,
        "meta_arg_of_pericenter": 148.7476,
        "meta_mean_anomaly": 211.4629,
        "meta_ephemeris_type": 0,
        "meta_classification_type": "U",
        "meta_norad_cat_id": 28893,
        "meta_element_set_no": 999,
        "meta_rev_at_epoch": 7266,
        "meta_bstar": 0.00020551,
        "meta_mean_motion_dot": 1.028e-05,
        "meta_mean_motion_ddot": 0,
        "tle_line1": "1 28893U 05043D   25342.78632406  .00001028  00000+0  20551-3 0  9990",
        "tle_line2": "2 28893  98.2601 111.3331 0015140 148.7476 211.4629 14.63956445 72662"
      },
      "geometry": {
        "type": "Point",
        "coordinates": [
          -75.53006361164903,
          -41.238755999268506
        ]
      }
    },
    {
      "type": "Feature",
      "properties": {
        "norad_id": 29079,
        "name": "EROS B",
        "group": "resource",
        "lat": 7.139426186247334,
        "lon": 98.72304027237409,
        "alt_km": 370.0752686563228,
        "timestamp": "2025-12-09T05:43:20.384216+00:00",
        "meta_object_name": "EROS B",
        "meta_object_id": "2006-014A",
        "meta_epoch": "2025-12-08T20:29:40.919712",
        "meta_mean_motion": 15.66703903,
        "meta_eccentricity": 0.0001617,
        "meta_inclination": 97.3477,
        "meta_ra_of_asc_node": 99.2473,
        "meta_arg_of_pericenter": 281.4228,
        "meta_mean_anomaly": 78.6851,
        "meta_ephemeris_type": 0,
        "meta_classification_type": "U",
        "meta_norad_cat_id": 29079,
        "meta_element_set_no": 999,
        "meta_rev_at_epoch": 9019,
        "meta_bstar": 0.0017136,
        "meta_mean_motion_dot": 0.00183398,
        "meta_mean_motion_ddot": 0,
        "tle_line1": "1 29079U 06014A   25342.85394583  .00183398  00000+0  17136-2 0  9990",
        "tle_line2": "2 29079  97.3477  99.2473 0001617 281.4228  78.6851 15.66703903 90196"
      },
      "geometry": {
        "type": "Point",
        "coordinates": [
          98.72304027237409,
          7.139426186247334
        ]
      }
    },
    {
      "type": "Feature",
      "properties": {
        "norad_id": 29228,
        "name": "RESURS-DK 1",
        "group": "resource",
        "lat": -63.32371660491895,
        "lon": -22.43350297606198,
        "alt_km": 531.0931575195355,
        "timestamp": "2025-12-09T05:43:20.384227+00:00",
        "meta_object_name": "RESURS-DK 1",
        "meta_object_id": "2006-021A",
        "meta_epoch": "2025-12-08T19:05:06.967392",
        "meta_mean_motion": 15.12128967,
        "meta_eccentricity": 0.0007608,
        "meta_inclination": 69.9338,
        "meta_ra_of_asc_node": 112.0315,
        "meta_arg_of_pericenter": 262.3971,
        "meta_mean_anomaly": 97.6331,
        "meta_ephemeris_type": 0,
        "meta_classification_type": "U",
        "meta_norad_cat_id": 29228,
        "meta_element_set_no": 999,
        "meta_rev_at_epoch": 7378,
        "meta_bstar": 0.00029267,
        "meta_mean_motion_dot": 4.953e-05,
        "meta_mean_motion_ddot": 0,
        "tle_line1": "1 29228U 06021A   25342.79521953  .00004953  00000+0  29267-3 0  9998",
        "tle_line2": "2 29228  69.9338 112.0315 0007608 262.3971  97.6331 15.12128967 73783"
      },
      "geometry": {
        "type": "Point",
        "coordinates": [
          -22.43350297606198,
          -63.32371660491895
        ]
      }
    }
  ]
}